$$SOE
2460721.500000000, A.D. 2025-Feb-15 00:00:00.0000, -3.338796129985431E+08, 2.279925422381621E+08, 7.703233243814673E+07,
2460728.500000000, A.D. 2025-Feb-22 00:00:00.0000, -3.408842412424731E+08, 2.201361134342936E+08, 7.803517586858594E+07,
2460735.500000000, A.D. 2025-Mar-01 00:00:00.0000, -3.476542967615685E+08, 2.121282051809199E+08, 7.898432176224642E+07,
2460742.500000000, A.D. 2025-Mar-08 00:00:00.0000, -3.541879262675813E+08, 2.039760387530744E+08, 7.987975450964960E+07,
2460749.500000000, A.D. 2025-Mar-15 00:00:00.0000, -3.604834607815424E+08, 1.956867571801325E+08, 8.072149127093920E+07,
2460756.500000000, A.D. 2025-Mar-22 00:00:00.0000, -3.665394100674677E+08, 1.872674239212310E+08, 8.150958059215200E+07,
2460763.500000000, A.D. 2025-Mar-29 00:00:00.0000, -3.723544559721381E+08, 1.787250196462615E+08, 8.224410078380905E+07,
2460770.500000000, A.D. 2025-Apr-05 00:00:00.0000, -3.779274443476124E+08, 1.700664402304715E+08, 8.292515828763744E+07,
2460777.500000000, A.D. 2025-Apr-12 00:00:00.0000, -3.832573774861959E+08, 1.612984960399540E+08, 8.355288621625334E+07,
2460784.500000000, A.D. 2025-Apr-19 00:00:00.0000, -3.883434072560507E+08, 1.524279116043811E+08, 8.412744301028696E+07,
2460791.500000000, A.D. 2025-Apr-26 00:00:00.0000, -3.931848286623408E+08, 1.434613254519436E+08, 8.464901116952068E+07,
2460798.500000000, A.D. 2025-May-03 00:00:00.0000, -3.977810737151824E+08, 1.344052901032087E+08, 8.511779604664508E+07,
2460805.500000000, A.D. 2025-May-10 00:00:00.0000, -4.021317055705518E+08, 1.252662722107538E+08, 8.553402469915980E+07,
2460812.500000000, A.D. 2025-May-17 00:00:00.0000, -4.062364129021006E+08, 1.160506527830474E+08, 8.589794479028922E+07,
2460819.500000000, A.D. 2025-May-24 00:00:00.0000, -4.100950043243825E+08, 1.067647274190890E+08, 8.620982351624136E+07,
2460826.500000000, A.D. 2025-May-31 00:00:00.0000, -4.137074024436942E+08, 9.741470684713186E+07, 8.646994654469106E+07,
2460833.500000000, A.D. 2025-Jun-07 00:00:00.0000, -4.170736379311530E+08, 8.800671895558862E+07, 8.667861709753104E+07,
2460840.500000000, A.D. 2025-Jun-14 00:00:00.0000, -4.201938459773181E+08, 7.854681163359571E+07, 8.683615533844148E+07,
2460847.500000000, A.D. 2025-Jun-21 00:00:00.0000, -4.230682639073555E+08, 6.904095313685432E+07, 8.694289768507008E+07,
2460854.500000000, A.D. 2025-Jun-28 00:00:00.0000, -4.256972268210952E+08, 5.949503173236606E+07, 8.699919590122116E+07,
2460861.500000000, A.D. 2025-Jul-05 00:00:00.0000, -4.280811627653998E+08, 4.991485676600226E+07, 8.700541628174901E+07,
2460868.500000000, A.D. 2025-Jul-12 00:00:00.0000, -4.302205886237255E+08, 4.030616033507664E+07, 8.696193897170050E+07,
2460875.500000000, A.D. 2025-Jul-19 00:00:00.0000, -4.321161065284461E+08, 3.067459898091554E+07, 8.686915735406643E+07,
2460882.500000000, A.D. 2025-Jul-26 00:00:00.0000, -4.337684005799958E+08, 2.102575533636478E+07, 8.672747748083612E+07,
2460889.500000000, A.D. 2025-Aug-02 00:00:00.0000, -4.351782338007996E+08, 1.136513974175802E+07, 8.653731754152474E+07,
2460896.500000000, A.D. 2025-Aug-09 00:00:00.0000, -4.363464452940453E+08, 1.698191807038132E+06, 8.629910736427918E+07,
2460903.500000000, A.D. 2025-Aug-16 00:00:00.0000, -4.372739475240898E+08, -7.969718150226809E+06, 8.601328793590787E+07,
2460910.500000000, A.D. 2025-Aug-23 00:00:00.0000, -4.379617234197556E+08, -1.763328778082252E+07, 8.568031091400878E+07,
2460917.500000000, A.D. 2025-Aug-30 00:00:00.0000, -4.384108229653606E+08, -2.728728078569474E+07, 8.530063815805534E+07,
2460924.500000000, A.D. 2025-Sep-06 00:00:00.0000, -4.386223606914638E+08, -3.692652340914810E+07, 8.487474148994943E+07,
2460931.500000000, A.D. 2025-Sep-13 00:00:00.0000, -4.385975157314507E+08, -4.654590183224626E+07, 8.440310263346684E+07,
2460938.500000000, A.D. 2025-Sep-20 00:00:00.0000, -4.383375311674511E+08, -5.614036211524817E+07, 8.388621289756326E+07,
2460945.500000000, A.D. 2025-Sep-27 00:00:00.0000, -4.378437116015809E+08, -6.570490958030742E+07, 8.332457275977048E+07,
2460952.500000000, A.D. 2025-Oct-04 00:00:00.0000, -4.371174209624433E+08, -7.523460709911354E+07, 8.271869157720605E+07,
2460959.500000000, A.D. 2025-Oct-11 00:00:00.0000, -4.361600809159603E+08, -8.472457323332500E+07, 8.206908738135859E+07,
2460966.500000000, A.D. 2025-Oct-18 00:00:00.0000, -4.349731695940289E+08, -9.416998050594056E+07, 8.137628670765427E+07,
2460973.500000000, A.D. 2025-Oct-25 00:00:00.0000, -4.335582204985276E+08, -1.035660537949188E+08, 8.064082444728248E+07,
2460980.500000000, A.D. 2025-Nov-01 00:00:00.0000, -4.319168215376585E+08, -1.129080688350472E+08, 7.986324371799639E+07,
2460987.500000000, A.D. 2025-Nov-08 00:00:00.0000, -4.300506141558657E+08, -1.221913508604424E+08, 7.904409574689370E+07,
2460994.500000000, A.D. 2025-Nov-15 00:00:00.0000, -4.279612924044927E+08, -1.314112734470611E+08, 7.818393974525520E+07,
2461001.500000000, A.D. 2025-Nov-22 00:00:00.0000, -4.256506015449101E+08, -1.405632573364794E+08, 7.728334275475886E+07,
2461008.500000000, A.D. 2025-Nov-29 00:00:00.0000, -4.231203363318657E+08, -1.496427681084193E+08, 7.634287957029657E+07,
2461015.500000000, A.D. 2025-Dec-06 00:00:00.0000, -4.203723412504678E+08, -1.586453128418427E+08, 7.536313293612966E+07,
2461022.500000000, A.D. 2025-Dec-13 00:00:00.0000, -4.174085122723017E+08, -1.675664391392680E+08, 7.434469370007789E+07,
2461029.500000000, A.D. 2025-Dec-20 00:00:00.0000, -4.142307966385520E+08, -1.764017354934368E+08, 7.328816068938228E+07,
2461036.500000000, A.D. 2025-Dec-27 00:00:00.0000, -4.108411917429655E+08, -1.851468304047711E+08, 7.219414061830701E+07,
2461043.500000000, A.D. 2026-Jan-03 00:00:00.0000, -4.072417445708268E+08, -1.937973908650181E+08, 7.106324811016601E+07,
2461050.500000000, A.D. 2026-Jan-10 00:00:00.0000, -4.034345515813982E+08, -2.023491208869908E+08, 6.989610576745415E+07,
2461057.500000000, A.D. 2026-Jan-17 00:00:00.0000, -3.994217587994311E+08, -2.107977601731863E+08, 6.869334426082923E+07,
2461064.500000000, A.D. 2026-Jan-24 00:00:00.0000, -3.952055620362414E+08, -2.191390829014083E+08, 6.745560243134099E+07,
2461071.500000000, A.D. 2026-Jan-31 00:00:00.0000, -3.907882072151597E+08, -2.273688966354052E+08, 6.618352740281104E+07,
2461078.500000000, A.D. 2026-Feb-07 00:00:00.0000, -3.861719907380877E+08, -2.354830414185899E+08, 6.487777469369623E+07,
2461085.500000000, A.D. 2026-Feb-14 00:00:00.0000, -3.813592596385275E+08, -2.434773890670358E+08, 6.353900830367389E+07,
2461092.500000000, A.D. 2026-Feb-21 00:00:00.0000, -3.763524111320717E+08, -2.513478420856576E+08, 6.216790078628219E+07,
2461099.500000000, A.D. 2026-Feb-28 00:00:00.0000, -3.711538926474863E+08, -2.590903310551404E+08, 6.076513350102393E+07,
2461106.500000000, A.D. 2026-Mar-07 00:00:00.0000, -3.657662043952108E+08, -2.667008124415857E+08, 5.933139707402121E+07,
2461113.500000000, A.D. 2026-Mar-14 00:00:00.0000, -3.601919016973247E+08, -2.741752691648756E+08, 5.786739162201054E+07,
2461120.500000000, A.D. 2026-Mar-21 00:00:00.0000, -3.544335952967875E+08, -2.815097110303520E+08, 5.637382681322288E+07,
2461127.500000000, A.D. 2026-Mar-28 00:00:00.0000, -3.484939516549221E+08, -2.887001739964908E+08, 5.485142203344101E+07,
2461134.500000000, A.D. 2026-Apr-04 00:00:00.0000, -3.423756938394994E+08, -2.957427192458704E+08, 5.330090663337880E+07,
2461141.500000000, A.D. 2026-Apr-11 00:00:00.0000, -3.360816027284024E+08, -3.026334324221098E+08, 5.172302020261624E+07,
2461148.500000000, A.D. 2026-Apr-18 00:00:00.0000, -3.296145183692445E+08, -3.093684230427351E+08, 5.011851285491355E+07,
2461155.500000000, A.D. 2026-Apr-25 00:00:00.0000, -3.229773414491107E+08, -3.159438240762567E+08, 4.848814552194335E+07,
2461162.500000000, A.D. 2026-May-02 00:00:00.0000, -3.161730348433837E+08, -3.223557917156456E+08, 4.683269025012302E+07,
2461169.500000000, A.D. 2026-May-09 00:00:00.0000, -3.092046251181332E+08, -3.286005054169651E+08, 4.515293048347710E+07,
2461176.500000000, A.D. 2026-May-16 00:00:00.0000, -3.020752036068147E+08, -3.346741680676760E+08, 4.344966130887482E+07,
2461183.500000000, A.D. 2026-May-23 00:00:00.0000, -2.947879270079352E+08, -3.405730052654775E+08, 4.172368974212965E+07,
2461190.500000000, A.D. 2026-May-30 00:00:00.0000, -2.873460195802858E+08, -3.462932633918329E+08, 3.997583527134822E+07,
2461197.500000000, A.D. 2026-Jun-06 00:00:00.0000, -2.797527772514435E+08, -3.518312097589777E+08, 3.820693041879332E+07,
2461204.500000000, A.D. 2026-Jun-13 00:00:00.0000, -2.720115699737602E+08, -3.571831346383650E+08, 3.641782100127143E+07,
2461211.500000000, A.D. 2026-Jun-20 00:00:00.0000, -2.641258428301677E+08, -3.623453522507332E+08, 3.460936637412642E+07,
2461218.500000000, A.D. 2026-Jun-27 00:00:00.0000, -2.560991175889662E+08, -3.673142010627367E+08, 3.278243978649320E+07,
2461225.500000000, A.D. 2026-Jul-04 00:00:00.0000, -2.479349947078587E+08, -3.720860441697919E+08, 3.093792878382759E+07,
2461232.500000000, A.D. 2026-Jul-11 00:00:00.0000, -2.396371555330517E+08, -3.766572699019839E+08, 2.907673562280095E+07,
2461239.500000000, A.D. 2026-Jul-18 00:00:00.0000, -2.312093646002554E+08, -3.810242926323271E+08, 2.719977769125590E+07,
2461246.500000000, A.D. 2026-Jul-25 00:00:00.0000, -2.226554720121542E+08, -3.851835537893682E+08, 2.530798793026651E+07,
2461253.500000000, A.D. 2026-Aug-01 00:00:00.0000, -2.139794158420275E+08, -3.891315231269771E+08, 2.340231524896032E+07,
2461260.500000000, A.D. 2026-Aug-08 00:00:00.0000, -2.051852243452496E+08, -3.928647002932160E+08, 2.148372490848953E+07,
2461267.500000000, A.D. 2026-Aug-15 00:00:00.0000, -1.962770175602852E+08, -3.963796162560258E+08, 1.955319887308161E+07,
2461274.500000000, A.D. 2026-Aug-22 00:00:00.0000, -1.872590090579065E+08, -3.996728333738021E+08, 1.761173629709655E+07,
2461281.500000000, A.D. 2026-Aug-29 00:00:00.0000, -1.781355101258297E+08, -4.027409454927869E+08, 1.566035424507572E+07,
2461288.500000000, A.D. 2026-Sep-05 00:00:00.0000, -1.689109342531185E+08, -4.055805809491031E+08, 1.370008821377707E+07,
$$EOE